GLOBALSTAR M023         
1 25621U 99004A   25205.55549576 -.00000172  00000+0 -37865-3 0  9991
2 25621  52.0122 299.6555 0010132 205.4270 168.1649 12.62502912220456
GLOBALSTAR M040         
1 25622U 99004B   25205.65268118 -.00000049  00000+0  30800-3 0  9997
2 25622  51.9929 303.5708 0001489 119.2150  21.5862 12.62013592219985
GLOBALSTAR M036         
1 25623U 99004C   25205.55279672 -.00000185  00000+0 -14867-2 0  9990
2 25623  51.9958 141.8330 0011062 120.2435  51.2004 11.86606690183416
GLOBALSTAR M038         
1 25624U 99004D   25205.56740953 -.00000076  00000+0  15400-3 0  9990
2 25624  51.9995 323.9226 0002557 127.4002 317.6219 12.32529433206989
GLOBALSTAR M022         
1 25649U 99012A   25205.33114812 -.00000111  00000+0 -28488-3 0  9991
2 25649  52.0012 189.9268 0002550 251.7559 248.5515 12.02502006180846
GLOBALSTAR M041         
1 25650U 99012B   25205.63811509 -.00000122  00000+0 -47603-3 0  9995
2 25650  52.0028  71.6875 0002199  42.3068 317.7938 11.96681216182768
GLOBALSTAR M046         
1 25651U 99012C   25205.56072697 -.00000006  00000+0  91228-3 0  9997
2 25651  52.0045 138.0722 0002412 338.7216 192.5036 12.09410707188182
GLOBALSTAR M037         
1 25652U 99012D   25205.61635431 -.00000076  00000+0  15726-3 0  9991
2 25652  52.0008  70.0748 0001332 287.4636  91.4776 12.62448989216004
